name1,name2,street1,street2,city,state,zip,GEOID,GEOID_Just_Tract,county,phone,intake_prompt,intake1,intake2,website,latitude,longitude,type_facility,sa,dt,mm,dm,bum,db,rpn,bu,nxn,vtrl,meth,hh,noop,pain,nmoa,moa,ubn,otp,cbt,dbt,tele,saca,trc,smon,smpd,smop,hi,res,op,rs,rl,rd,od,omb,odt,oit,ort,hid,hit,ct,gh,psyh,vamc,tbg,ih,stg,lccg,ddf,stag,stmh,stdh,hla,jc,carf,ncqa,coa,hfap,np,sf,md,mc,si,pi,mi,fsa,ss,pa,ah,sp,co,gl,vet,adm,mf,cj,se,ad,pw,wn,mn,hv,trma,xa,dv,tay,nsc,adtx,bdtx,cdtx,mdtx,odtx,tgd,ico,gco,fco,mco,twfa,bia,cmi,moti,ang,mxm,crv,relp,bc,chld,yad,adlt,fem,male,du,duo,acc,acm,acu,baba,ccc,cmha,csaa,daut,dp,dsf,dvfp,eih,emp,haec,heoh,hivt,isc,itu,mhs,opc,sae,shg,smhd,ssa,ssd,stdt,ta,taec,tbs,cm,fpsy,hs,nrt,peer,stu,tcc,bsdm,nu,mu,bwn,bwon,ub,un,beri,pvtp,pvtn,sumh,inpe,rpe,pc,naut,nmaut,acma,pmat,auinpe,aurpe,aupc,dlc,mhiv,mhcv,lfxd,clnd,copsu,daof,mst,noe,ofd,rc,piec,mdet,voc,hav,hbv,audo,mmd,mpep,fed,sotp,dea,samf,mhpa,hbt,hct,tod,vapn,vapp,vppd,oudo,nx,fx,mws,f19,f25,f28
Kolmac Outpatient Recovery Centers,,1411 K Street NW,Suite 703,Washington,DC,20005,1.10E+14,1010,District of Columbia,202-638-1992,Intakes,888-321-5251,888-244-4421,http://www.kolmac.com,38.9028791,-77.0325632,SU,1,,,,1,,1,1,1,1,,,,,,,,,1,,1,1,1,,,1,,,1,,,,,1,,1,1,,,,,,,,,,,,1,,1,,,1,,,,,1,,,,1,1,,,,1,,1,1,,,,,,,,1,1,,,,,1,1,,,,,,1,1,1,1,,1,,,1,1,,,1,,,1,1,1,1,,,1,1,,1,,1,1,1,1,1,,,,1,,,1,,1,,1,1,1,1,1,,,,,1,,1,1,1,1,1,,1,,1,1,1,1,,1,,1,,,,,,,1,1,,1,,,,,1,,1,,1,1,1,,,,,,,1,,,,,,,,,,,1,,,,,1,,,
Whitman Walker Clinic/Mental Hlth and,Addiction Treatment Services,1525 14th Street NW,Floor 5-R,Washington,DC,20005,1.10E+14,1005,District of Columbia,202-745-7000,,,,http://www.whitman-walker.org,38.9104721,-77.0315736,SU,1,1,,,1,1,1,1,1,1,,1,,,,1,,,1,,1,1,1,1,,,,,1,,,,1,1,,,1,,,,,,,,,,,,1,1,,,,,,,,,1,1,1,,1,1,1,,,1,,1,1,,,,,,,,,,1,1,1,1,,1,,,,,1,,1,1,1,1,,,,1,,1,,1,,,1,1,1,1,1,,1,1,1,1,,1,1,1,1,1,,1,,1,1,1,1,,1,,1,,1,1,,1,1,1,1,,,,1,1,1,1,,1,,1,1,1,1,1,,1,1,1,,,,,,1,1,,,,1,1,1,1,,1,1,1,1,,,1,,1,1,,1,1,,,,1,1,1,1,1,1,,,,,,1,,,
Hillcrest Children and Family Center,,915 Rhode Island Avenue NW,,Washington,DC,20001,1.10E+14,1004,District of Columbia,202-232-6100,,,,http://www.hillcrest-dc.org/,38.911691,-77.0247585,SU,1,,,,,,,,,,,,1,,,,,,,,1,1,1,,1,,,,1,,,,,,,,1,,,,,,,,,,,,,1,,,,,,,,,1,1,,1,1,,1,1,,,,,,,,,,,,,,,,,,,,,,,,,,,1,1,1,,,1,1,1,1,,,1,,1,,,1,1,,,1,,,1,,1,1,1,1,,1,,1,1,,,,,1,1,1,1,1,1,1,,,,,,,1,,1,,,,,,,,,,,,1,1,,,,,,1,,,,1,,,,,,,1,1,,,,1,,,,,,1,,,1,,,1,,,,1,,,,,,,,,
Partners in Drug Abuse Rehab and,Counseling (PIDARC),2112 F Street NW,Suite 102,Washington,DC,20037,1.10E+14,1010,District of Columbia,202-296-4455,,,,http://pidarcdc.org,38.8971338,-77.0471365,SU,1,,1,,,,,,,,1,,,,,,,1,1,,1,1,1,,1,,,,1,,,,,1,,,1,,,,,,,,,,,,1,,1,,,1,,,,,1,1,1,1,1,,,,,1,,,,,,,,,,,1,1,,,,,,,,,,,,,1,1,1,1,,1,1,1,1,1,1,1,,,1,1,1,1,,,1,,,1,,1,1,1,1,,,,,1,1,1,1,,1,1,1,,1,1,1,1,1,1,1,1,,1,,1,1,1,,,1,,,,,,1,,,,,,1,,,,,,,,,,,,,1,,1,1,1,,,,,1,,,,,1,1,,1,1,1,,,,1,1,,1,1,,1,
BayMark Health Services of West Virginia Inc.,PIDARC,"2112 F St., Northwest, Suite 101,102, 402, 404B",,Washington,DC,20037,1.10E+14,1010,,(202) 296-4455,,,,,38.8971542,-77.0471954,OTP,1,1,1,1,1,1,1,1,1,1,1,1,1,1,1,1,1,1,1,1,1,1,1,1,1,1,1,1,1,1,1,1,1,1,1,1,1,1,1,1,1,1,1,1,1,1,1,1,1,1,1,1,1,1,1,1,1,1,1,1,1,1,1,1,1,1,1,1,1,1,1,1,1,1,1,1,1,1,1,1,1,1,1,1,1,1,1,1,1,1,1,1,1,1,1,1,1,1,1,1,1,1,1,1,1,1,1,1,1,1,1,1,,,,,,,,,,,,,,,,1,,,,,,,,,,1,,,1,1,1,1,1,1,1,1,1,1,1,1,1,1,1,1,1,1,1,1,1,1,1,1,1,1,1,1,1,1,1,1,1,1,1,1,1,1,1,1,1,1,1,1,1,1,1,1,1,1,1,1,1,1,1,1,1,1,1,1,1,1,1,,,
Samaritan Inns,Adult Treatment Program,2523 14th Street NW,,Washington,DC,20009,1.10E+14,1003,District of Columbia,202-667-8831 x264,,,,http://www.samaritaninns.org,38.9233075,-77.0315803,SU,1,,,,,,,1,,,,1,,,,1,,,1,,1,1,1,,1,,,1,,1,1,,,,,,,,,,,,,,,,,,1,,1,,,,,,,,,1,1,1,,,1,,,,,1,1,1,1,,1,1,,1,1,1,1,1,1,1,1,,,,,,,,1,1,,,1,1,1,1,1,1,1,1,,,1,1,1,1,,,1,,,,,,,1,1,,,1,,1,1,1,,,1,1,1,1,1,1,1,,1,1,1,1,,1,,1,1,1,,,,,,,,,,1,1,1,1,,,,1,,1,1,,,,,,,1,1,,1,1,1,,,,,,,,,,,,1,,,,,,,1,,,,,,,
So Others Might Eat Inc (SOME),,60 O Street NW,,Washington,DC,20001,1.10E+14,1004,District of Columbia,202-797-8806 x1000,,202-381-0899,,http://www.some.org,38.9082548,-77.0111183,SU,1,,,,1,,,1,1,1,,,,,,1,,,1,,1,1,1,,1,,,,1,,,,,1,,1,1,,,,,,,,,,,,1,1,1,,,,,,1,,,1,1,1,,,,1,1,1,,1,,,,,,1,,,1,1,,1,,,,1,,,,,,,1,1,1,,,1,,1,1,,,1,,,1,1,1,1,,,1,,,1,,1,1,1,1,,1,1,,1,1,1,1,,1,1,1,,1,1,1,1,,1,1,1,,1,1,,1,1,,1,,1,1,1,1,1,,1,1,,1,1,,,1,1,,1,1,,,,,,,,1,1,,,,,,1,1,,1,,,,,,1,1,1,,,,1,,,,,,,
Samaritan Inns Inc,Huff House,2500 Ontario Road NW,,Washington,DC,20009,1.10E+14,1003,District of Colu,202-667-8831,,202-621-7447,,http://www.samaritaninns.org,38.9232287,-77.0403791,SU,1,,,,1,,,1,,1,,,,1,,1,,,1,,1,1,1,,1,,,1,,1,1,,,,,,,,,,,,,,,,,,1,,1,,,,,,,,,1,,1,,,1,,,,,1,1,1,,,1,1,,,1,,1,1,1,1,1,1,,,,,,,1,1,1,1,1,1,1,1,1,1,1,1,,,1,1,1,,,,1,,,,,,1,1,1,1,1,1,1,1,1,,1,,1,1,1,1,1,1,1,,1,1,,1,,1,1,1,1,1,,1,,1,1,1,,,,1,1,1,,,,,1,,1,,,,1,1,,1,1,1,,1,1,1,,,1,,,,1,,,,,,,,,,,,1,,,,,,,
Clean and Sober Streets,,425 2nd Street NW,Suite 2-N,Washington,DC,20001,1.10E+14,1005,District of Columbia,202-783-7343,,202-727-8473,,http://www.cleanandsoberstreets.org,38.89559823,-77.01366138,SU,1,,,,,,,,,,,,,,,1,,,1,,,1,1,,1,,,1,,1,1,,,,,,,,,,,,,,,,,,1,,1,,,,,,,,,1,,1,,,1,,,,,1,,,,,,,,,1,1,,1,,,,,,,,,,,1,1,1,,1,1,1,1,1,1,,1,,,1,1,1,1,,,1,,1,1,,,1,1,1,,,1,1,1,,1,,,,,1,1,1,1,1,,1,1,1,1,,1,1,1,1,1,,,,,,,,,,1,,,,1,,,1,,,,1,,,,,,,,,1,1,1,,,1,,,,,,,,,,,,1,,1,,,,,,,,,
Safe Haven Outreach Ministry Inc,Marks Place at Sibley Plaza,1140 North Capitol Street NW,Suite 924,Washington,DC,20002,1.10E+14,1006,District of Columbia,202-589-1505 x303,,202-589-1505 x315,,http://www.safehavenoutreachministry.org,38.9049394,-77.0095301,SU,1,,,,1,,,1,1,,,1,,,,1,,,1,,,1,1,,1,,,1,,1,,,,,,,,,,,,,,,,,,,,,,,,,,,,,,,,,,,,,,1,,1,1,1,,,1,1,,1,1,1,1,1,1,1,1,1,,,,,,,1,1,1,1,1,1,1,1,1,1,1,1,,,1,1,1,1,,,1,,,1,,,1,1,1,1,,1,1,1,1,1,1,,1,1,1,1,1,1,1,1,1,1,1,1,,1,1,1,,,1,1,,1,1,,,1,,1,1,,1,,,,1,,1,,,,1,1,,1,1,,,1,1,,1,,,,,,1,1,,,,,1,,1,1,1,,,,,,,,,
Samaritan Inns,Mens Transitional/Treatment,1215 Fairmont Street NW,,Washington,DC,20009,1.10E+14,1003,District of Columbia,202-292-2066,,,,http://www.samaritaninns.org,38.9249785,-77.028481,SU,1,,,,1,,,1,,1,,,,1,,1,,,1,,1,1,1,,1,,,1,,1,1,,,,,,,,,,,,,,,,,,1,,1,,,,,,,,,1,,1,,,1,,,,,1,1,1,,,1,1,,,,1,1,1,1,1,1,1,,,,,,,1,1,1,1,1,1,1,1,1,1,1,1,,,1,1,,1,,,1,,,,,,1,1,1,1,1,1,1,1,1,,1,,1,1,1,1,1,1,1,,1,1,,1,,1,1,1,1,1,,1,,1,1,1,,,,1,1,1,,,,,1,,1,,,,1,1,,1,1,1,,1,1,1,,,1,,,,1,,,,,,,,,,,,1,,,,,,,
Samaritan Inns Inc,Clark Inn,1422 Harvard Street NW,,Washington,DC,20009,1.10E+14,1003,District of Columbia,202-667-8831,,,,http://www.samaritaninns.org,38.9262287,-77.0334403,SU,1,,,,1,,,1,,1,,,,1,,1,,,1,,1,1,1,,1,,,1,,1,1,,,,,,,,,,,,,,,,,,1,,1,,,,,,,,,1,,1,,,1,,,,,1,,1,,,1,1,,1,1,,1,1,1,1,1,1,,,,,,,1,1,1,1,1,1,1,1,1,1,1,1,1,,1,1,1,,,,1,,,,1,,1,1,1,1,1,1,1,1,1,,1,,1,1,1,1,1,1,1,,1,1,,1,,1,1,1,1,1,,1,,1,1,1,,,,1,1,1,,,,,1,,1,,,,1,1,,1,1,1,,1,1,1,,,1,,,,1,,,,,,,,,,,,1,,,,,,,
Latin American Youth Center,Substance Use Disorder Treatment,1419 Columbia Road NW,,Washington,DC,20009,1.10E+14,1002,District of Columbia,202-319-2225,Intakes,202-319-2229,202-321-3369,http://www.layc-dc.org,38.9277554,-77.0332829,SU,1,,,,,,,,,,,,1,,,,,,1,,1,,1,1,,,,,1,,,,,,,,1,,,,,,,,,,,,1,1,1,,,,,,,,,1,,,,,1,,1,,1,1,,,,,1,,1,,,,,1,1,1,1,,,,,,,,1,1,1,1,,1,1,1,,,,1,,1,1,1,1,1,,,,,,,,1,1,,1,,1,,1,1,1,1,,,1,1,1,,1,1,1,1,1,,,1,,1,,1,1,1,,,,,,,,,,1,1,,,,1,,,,,,,,,,,,,,,,1,,,,1,,,,,,,,,,,,,,1,,,,,,,,,
Regional Addiction Prevention Inc,(RAP)/Residential and Outpt Trt Fac,1949 4th Street NE,,Washington,DC,20002,1.10E+14,1008,District of Columbia,202-462-7500,,202-462-7500 x1234,,http://rapinc.org,38.9169161,-77.000284,SU,1,1,,,1,1,1,1,,1,,,,,,1,,,1,,1,1,1,,1,,,1,1,1,,1,,,,1,1,,,,,,,,,,,,1,1,1,,,,,,,,,1,1,1,,,1,,,,,1,1,1,1,1,1,1,,1,1,1,1,1,1,1,1,,1,1,1,1,1,,1,1,1,1,,1,1,1,1,,,1,,,1,1,1,1,,,1,,,1,,1,1,1,1,,,1,1,1,1,1,1,,1,1,1,1,1,1,1,1,1,1,1,1,,1,1,1,1,1,,1,,1,,,,,,1,1,1,1,1,,,1,,1,1,1,,1,,,,,,,1,1,1,,1,,,,,1,,,,,,,1,1,,1,,,,,,,,,
Department of Veterans Affairs Community Clinic,Washington DC VA Medical Center,50 Irving Street N.W.,,Washington,DC,20422,1.10E+14,1002,,(202) 745-8000 x8336,,,,,38.9273491,-77.0096755,OTP,1,1,1,1,1,1,1,1,1,1,1,1,1,1,1,1,1,1,1,1,1,1,1,1,1,1,1,1,1,1,1,1,1,1,1,1,1,1,1,1,1,1,1,1,1,1,1,1,1,1,1,1,1,1,1,1,1,1,1,1,1,1,1,1,1,1,1,1,1,1,1,1,1,1,1,1,1,1,1,1,1,1,1,1,1,1,1,1,1,1,1,1,1,1,1,1,1,1,1,1,1,1,1,1,1,1,1,1,1,1,1,1,,,,,,,,,,,,,,,,1,,,,,,,,,,1,,,1,1,1,1,1,1,1,1,1,1,1,1,1,1,1,1,1,1,1,1,1,1,1,1,1,1,1,1,1,1,1,1,1,1,1,1,1,1,1,1,1,1,1,1,1,1,1,1,1,1,1,1,1,1,1,1,1,1,1,1,1,1,1,,,
Veterans Affairs Medical Center,Substance Abuse Recovery Program,50 Irving Street NW 3-C North,Unit 116-A,Washington,DC,20422,1.10E+14,1002,District of Columbia,202-745-8336,,,,http://www.va.gov,38.9289408,-77.0098896,SU,1,1,1,1,1,1,1,1,1,1,1,,,,,1,,1,1,,1,1,1,1,,,1,,1,,,,1,1,1,1,1,1,1,,1,,1,,,,,,,,,,1,,,,,,1,1,1,,1,,1,,,,,,1,1,,,,1,,1,,1,,,1,,,1,1,1,1,1,1,1,1,1,1,,1,1,1,1,1,1,,1,,,1,1,1,1,,,1,1,1,1,,1,1,1,1,1,1,,,1,1,1,,,1,1,1,,1,1,,,1,1,1,1,,,1,1,1,1,,1,1,1,1,1,1,1,,,1,1,,,,,,1,1,,,,1,,,1,1,1,1,1,1,,1,1,,1,1,,1,,1,1,1,,1,,1,,1,,,,,,1,,,
Circles of Hope Psychotherapy and,Addictions Services,3000 Connecticut Avenue NW,Suite 321,Washington,DC,20008,1.10E+14,1000,District of Columbia,202-265-2343,,,202-997-1448,http://circlesofhopellc.com,38.9298279,-77.0558376,SU,1,,,,,,,,,,,,1,,,,,,1,,1,1,1,1,,,,,1,,,,,,,1,1,,,,,,,,,,,,1,,,,,,,,,,1,,,,1,,,1,,1,,1,1,1,1,1,1,1,1,,1,1,1,1,1,1,1,,,,,,,,1,1,1,1,1,1,,1,1,1,,1,,,1,1,1,1,1,,1,,,1,,1,1,1,1,,1,,1,1,1,,,,1,1,1,1,1,1,1,,,,,,,1,,1,1,1,,,,,,,,,1,,1,,,,,,1,,,,1,,,,,,,,,1,1,1,1,,1,,,,,,,,,,,,,1,1,,,,,,,,,
Andromeda Transcultural Health,,1400 Decatur Street NW,,Washington,DC,20011,1.10E+14,1002,District of Columbia,202-291-4707 x128,Intakes,202-291-4707 x108,202-291-4707 x104,http://www.andromedahealth.org,38.9480875,-77.0330805,SU,1,,,,1,,1,1,1,,,,,,,,,,,,1,1,1,1,,,,,1,,,,,1,,,1,,,,,,,,,,,,,1,,,,,,,,,1,1,1,1,1,,,,,,1,1,,,,,,,,,1,1,,1,,,,1,,,,,,,1,,,,,,,,,,,1,,,1,1,1,1,,,,,,,,1,1,,,,,,,1,1,,,,1,1,1,,1,1,,,,,,,,,,,1,1,,1,,1,1,1,1,,,1,,,,,,,,1,,,1,,,,,,,,,1,,,1,,,,,,1,,,,,,,,,,1,,,,,,,,,
Community Action Group (CAG),Outpatient,124 15th Street SE,,Washington,DC,20003,1.10E+14,1006,District of Columbia,202-543-4558,,202-543-4558 x4,,http://communityactiongroup.org/,38.8879631,-76.9835056,SU,1,,,,,,,,,,,,,,,1,,,1,,1,1,1,,1,,,,1,,,,,,,1,1,,,,,,,,,,,,1,1,,,,,,,,,1,1,,1,,,1,,,1,,1,1,1,,,1,1,,1,1,1,1,1,1,1,1,,,,,,,,1,1,1,1,1,1,,1,1,,,1,,,1,1,1,1,1,,1,,,1,,1,1,1,1,,1,1,1,1,1,,,,1,1,1,1,1,1,1,,,1,,1,,1,,1,1,1,,,,,,,,,,1,1,1,,1,,,1,,1,,1,,,,,,1,,1,1,1,1,1,,,,,,,,,,,1,,,,,1,,,,,,,,,
Wellness Health Services LLC,The ARK of DC,"1818 New York Avenue, NE",,Washington,DC,20002,1.10E+14,1011,,(770) 331-7912,,,,,38.9177239,-76.9767437,OTP,1,1,1,1,1,1,1,1,1,1,1,1,1,1,1,1,1,1,1,1,1,1,1,1,1,1,1,1,1,1,1,1,1,1,1,1,1,1,1,1,1,1,1,1,1,1,1,1,1,1,1,1,1,1,1,1,1,1,1,1,1,1,1,1,1,1,1,1,1,1,1,1,1,1,1,1,1,1,1,1,1,1,1,1,1,1,1,1,1,1,1,1,1,1,1,1,1,1,1,1,1,1,1,1,1,1,1,1,1,1,1,1,,,,,,,,,,,,,,,,1,,,,,,,,,,1,,,1,1,1,1,1,1,1,1,1,1,1,1,1,1,1,1,1,1,1,1,1,1,1,1,1,1,1,1,1,1,1,1,1,1,1,1,1,1,1,1,1,1,1,1,1,1,1,1,1,1,1,1,1,1,1,1,1,1,1,1,1,1,1,,,
UPO Comprehensive Treatment Center,,"1900 Massachusetts Avenue, S.E. Bldg. 13",,Washington,DC,20003,1.10E+14,1006,,(202) 682-6599,,,,,38.884869,-76.978138,OTP,1,1,1,1,1,1,1,1,1,1,1,1,1,1,1,1,1,1,1,1,1,1,1,1,1,1,1,1,1,1,1,1,1,1,1,1,1,1,1,1,1,1,1,1,1,1,1,1,1,1,1,1,1,1,1,1,1,1,1,1,1,1,1,1,1,1,1,1,1,1,1,1,1,1,1,1,1,1,1,1,1,1,1,1,1,1,1,1,1,1,1,1,1,1,1,1,1,1,1,1,1,1,1,1,1,1,1,1,1,1,1,1,,,,,,,,,,,,,,,,1,,,,,,,,,,1,,,1,1,1,1,1,1,1,1,1,1,1,1,1,1,1,1,1,1,1,1,1,1,1,1,1,1,1,1,1,1,1,1,1,1,1,1,1,1,1,1,1,1,1,1,1,1,1,1,1,1,1,1,1,1,1,1,1,1,1,1,1,1,1,,,
DOC Central Detention Facility Methadone Program,DC Jail,1900 D Street SE,,Washington,DC,20003,1.10E+14,1009,,(202) 671-2066,,,,,38.8840876,-76.9770062,OTP,1,1,1,1,1,1,1,1,1,1,1,1,1,1,1,1,1,1,1,1,1,1,1,1,1,1,1,1,1,1,1,1,1,1,1,1,1,1,1,1,1,1,1,1,1,1,1,1,1,1,1,1,1,1,1,1,1,1,1,1,1,1,1,1,1,1,1,1,1,1,1,1,1,1,1,1,1,1,1,1,1,1,1,1,1,1,1,1,1,1,1,1,1,1,1,1,1,1,1,1,1,1,1,1,1,1,1,1,1,1,1,1,,,,,,,,,,,,,,,,1,,,,,,,,,,1,,,1,1,1,1,1,1,1,1,1,1,1,1,1,1,1,1,1,1,1,1,1,1,1,1,1,1,1,1,1,1,1,1,1,1,1,1,1,1,1,1,1,1,1,1,1,1,1,1,1,1,1,1,1,1,1,1,1,1,1,1,1,1,1,,,
Ascension Healthcare,,1140 Varnum Street NE,Suite 100,Washington,DC,20017,1.10E+14,1009,District of Columbi,202-854-4623,,,,http://,38.9437145,-76.9920551,SU,1,1,,,1,1,1,1,1,1,,,,,,1,,,1,,1,1,1,1,,,,,1,,,,1,1,,1,1,,,,,,,,,,,,,,1,,,,,,,,,1,1,1,1,1,,,,,,1,,,,,,1,,,1,1,,,,,1,1,1,1,1,1,1,,1,1,1,,,1,,1,,,,1,,,1,1,1,1,,,1,1,,,,1,1,1,1,1,,,,1,1,1,1,,1,1,1,1,1,1,,1,1,1,1,1,,,1,,1,1,,1,,1,1,1,1,,,1,,1,1,1,,,1,1,1,1,1,1,,,1,1,1,,1,1,1,,1,1,,,,,1,,,,,,1,1,1,,1,,,,,,1,,,
UPO Comprehensive Treatment Center,,1900 Massachusetts Avenue SE,Building 13,Washington,DC,20003,1.10E+14,1006,District of Columbia,202-682-6599,,,202-682-6592,http://upo.org/ctc,38.8855512,-76.9739373,SU,1,,1,,,,,,,,1,,,,,,,1,1,,1,1,1,,,1,,,1,,,,,1,,,1,,,,,,,,,,,,1,1,1,,,1,,,,,,1,,1,,,1,1,,1,,1,,,,,,,,,1,1,,,,,,,,,,,,,1,1,1,1,,1,1,1,1,,,1,,,1,1,1,1,,,,,,1,,,1,1,1,,,,,1,1,1,,,,,1,,1,1,1,1,1,1,1,1,,1,,1,1,,,,1,,,,,,,1,,,,,1,,,,,,,,,,,,,,1,1,,1,,,,,,,,,,1,1,1,1,1,,,,1,,1,,,,,,
Family and Medical Counseling Service,,2041 Martin Luther King Avenue SE,Suite 303,Washington,DC,20020,1.10E+14,1009,District of Columbia,202-889-7900,,,,http://www.fmcsinc.org,38.8659856,-76.9897776,SU,1,,,,1,,,1,,,,,,,,,,,1,,1,1,1,1,,,,,1,,,,,1,,1,1,,,,,,,,,,,,1,1,,,,,1,,,,1,1,1,1,1,1,1,1,1,,,,,,,,,,,,,,,,,,,,,,,,,,1,1,,,,1,,1,1,1,,1,,,1,1,1,1,1,,1,,,1,,1,1,1,1,,,1,,1,,1,,,1,1,1,,1,1,1,,1,1,1,1,,,,1,,,,,,,1,1,,,,1,1,,,,,,1,,,,1,,1,1,,,,,1,1,,1,,,,1,1,,1,1,,,,,,,1,,1,,,,,,,,,
BHG Washington DC Treatment Center,BHG XLVI LLC,1320 Good Hope Road SE,,Washington,DC,20020,1.10E+14,1007,District of Columbia,202-610-1886,,,,http://www.bhgrecovery.com/locations/washington-dc,38.8671603,-76.9863116,SU,1,,1,,,,,,,,1,,,,,,,1,,,1,1,1,,1,,,,1,,,,,1,,,1,,,,,,,,,,,,,,,,1,1,,,,,1,1,1,1,1,,,,,1,,1,1,1,1,1,,1,,1,1,,1,1,1,1,,,,,,,,,1,1,1,,1,,,,,,,1,,,1,1,1,1,,,1,,,1,,,1,1,1,,,,,1,1,1,,,,1,1,,,1,,1,,1,1,1,,1,,1,1,1,,,1,,,,,,1,,,,,,1,,,,,,,,,,,,,1,,1,1,,1,,,,,,,,,1,,,1,1,1,,,,1,1,,,1,,,
Inner City Family Services Inc,,2307 Martin Luther King Jr Avenue SE,,Washington,DC,20020,1.10E+14,1006,District of Columbia,202-525-4855,,,,http://www.innercityfamilyservices.com,38.8633444,-76.9915438,SU,1,,,,,,,,,,,,,,,1,,,1,,1,1,,1,,,,,1,,,,,,,,1,,,,,,,,,,,,1,1,,,,,,,,,,1,1,,,,,,,1,,1,1,,,,1,1,,,1,1,1,1,1,1,1,,,,,,,,1,1,,,,,,1,1,,,1,,,1,1,1,1,,,1,,,1,,1,1,1,1,,,,1,1,,,,,1,1,1,,1,1,,,,1,,1,,1,,,1,,,,,,,,,,1,,,,,1,,,1,,,,1,,,,,,1,,,1,1,,,,,,,,1,,,,,,,,,,1,,,,,,,,,
"BHG XLVI, LLC",BHG Washington DC Treatment Center,"1320 Good Hope Road, SE",,Washington,DC,20020,1.10E+14,1007,,(202) 610-1886,,,,,38.8634,-76.975,OTP,1,1,1,1,1,1,1,1,1,1,1,1,1,1,1,1,1,1,1,1,1,1,1,1,1,1,1,1,1,1,1,1,1,1,1,1,1,1,1,1,1,1,1,1,1,1,1,1,1,1,1,1,1,1,1,1,1,1,1,1,1,1,1,1,1,1,1,1,1,1,1,1,1,1,1,1,1,1,1,1,1,1,1,1,1,1,1,1,1,1,1,1,1,1,1,1,1,1,1,1,1,1,1,1,1,1,1,1,1,1,1,1,,,,,,,,,,,,,,,,1,,,,,,,,,,1,,,1,1,1,1,1,1,1,1,1,1,1,1,1,1,1,1,1,1,1,1,1,1,1,1,1,1,1,1,1,1,1,1,1,1,1,1,1,1,1,1,1,1,1,1,1,1,1,1,1,1,1,1,1,1,1,1,1,1,1,1,1,1,1,,,
Aquila Recovery Clinic,,5101 Wisconsin Avenue NW,Suite 325,Washington,DC,20016,1.10E+14,1001,District of Columbia,202-244-1600,,,,http://www.aquilarecovery.com,38.9563213,-77.0829722,SU,1,,,,,,,1,1,1,,,,,1,,,,1,,1,1,1,1,,,,,1,,,,,1,1,1,1,,,,,,,,,,,,1,1,1,,1,,,,,,1,,,,1,,,,,1,1,1,1,1,1,1,,1,,1,1,1,1,1,1,1,1,,,,,,,,1,1,1,1,1,1,,1,1,1,1,1,,,1,1,1,1,,,1,1,,1,,1,1,1,1,1,,1,1,1,1,,1,,,1,1,1,1,1,,,,1,1,1,,1,,1,1,1,,1,,1,1,1,1,,1,,1,,,,,,,1,1,,1,,,,,,,,1,1,1,1,1,,,,,,1,,,,,,,1,1,,,,1,,,1,,1,,1
MBI Health Services LLC,,3000 Pennsylvania Avenue,,Washington,DC,20020,1.10E+14,1009,District of Colu,202-581-0490,,,,http://,38.8712006,-76.963811,SU,1,,,,,,,,,,,,,,,1,,,,,,1,,1,,,,,1,,,,,,1,,1,,,,,,,,,,,,1,1,1,,,1,,,1,,,1,1,,1,,,,,,,1,1,1,,,1,,,,1,1,1,1,1,1,1,,,,,,,,1,1,,,1,1,,1,1,,,1,,,1,1,1,1,,,,,,,,,,,1,,,1,1,,,,,,1,,1,,,,,,1,,,1,,1,,1,,,,,,,,,,,1,,,,,1,,,1,,,,1,,,,,,1,,,,,,1,1,,,,,,,,,,,,,,1,1,,,,,,,,,
New Hope Health Services,,2759 Martin Luther King Avenue SE,,Washington,DC,20032,1.10E+14,1009,District of Columbia,202-827-9961,,,,http://www.nhh-services.com,38.8466224,-76.9966396,SU,1,1,,,,1,,1,,,,,,,,1,,,1,,1,1,1,,1,,,,1,,,,1,,1,1,1,,,,,,,,,,,,1,1,,,,,,,,,,1,1,1,,,,1,1,,1,1,1,1,1,1,1,1,1,1,1,1,1,1,1,1,1,,1,1,1,1,1,1,1,1,1,1,1,1,1,1,1,1,1,1,,1,,,1,1,,,1,,,1,1,1,1,1,1,,1,,1,1,1,1,1,,1,1,1,1,1,1,1,,,1,1,1,,1,1,1,1,1,,1,,1,,,,,1,,1,,,1,,,1,1,,,1,,,,,,1,1,1,1,1,1,1,,,,,,1,,,,,,1,1,1,1,,,1,,,1,,,,1
SOME Conway Center,,4420 Benning Road NE,,Washington,DC,20019,1.10E+14,1007,District of Columbia,202-701-1213,,,,http://www.some.org,38.8912303,-76.9382436,SU,1,,,,,,,,1,1,,1,,,,1,,,1,,1,1,1,,1,,,,1,,,,,,,,1,,,,,,,,,,,,,1,1,,,,,,,,,1,1,1,,,,1,1,1,,,,,,,,,,,,,,,,,,,,,,,,,1,1,,,,,,1,,,,1,,,1,1,1,1,,,1,,,1,,1,,1,1,,,,,,,,1,,1,1,1,,1,1,,,,,,1,,1,,1,,1,,1,,,,,,,,1,1,,,1,,,1,,,,1,,,,,,,,,,,,,,,,,,1,,,,,,,,,,,,1,,,,,,,
Pilgrim Rest Therapeutic Services Inc,The Better Way Program,4601 Sheriff Road NE,,Washington,DC,20019,1.10E+14,1007,District of Columbia,202-396-4290,,,,http://betterwayprogram.org,38.902558,-76.936376,SU,1,,,,,,,,,,,,1,,,,,,,,,1,,,1,,,,1,,,,,,,1,1,,,,,,,,,,,,1,1,1,,,1,,1,1,,1,1,1,1,1,1,,,1,,,1,1,1,1,1,1,1,,1,1,1,1,1,1,1,1,,,,,,,,1,1,1,,1,,1,1,1,,,1,,,,,1,1,,,1,,,1,,,,1,1,,,,1,1,,1,1,1,,1,1,1,,1,1,,,,,1,,1,,1,,1,,,,,,,,,,1,,,,,,1,,,,,,,,,,,1,1,,,1,1,1,,,,,,,,,,,,,,,,1,,,,,,,,,
